{
  "type": "FeatureCollection",
  "features": [
    {
      "type": "Feature",
      "properties": {
        "norad_id": 66927,
        "name": "STARLINK-35943",
        "group": "last-30-days",
        "lat": 5.1988003917483825,
        "lon": -163.22081252338268,
        "alt_km": 323.7891645493073,
        "timestamp": "2025-12-18T15:47:09.961739+00:00",
        "meta_object_name": "STARLINK-35943",
        "meta_object_id": "2025-286C",
        "meta_epoch": "2025-12-18T06:00:02.999808",
        "meta_mean_motion": 15.83631694,
        "meta_eccentricity": 7.758e-05,
        "meta_inclination": 53.1566,
        "meta_ra_of_asc_node": 22.7418,
        "meta_arg_of_pericenter": 82.5989,
        "meta_mean_anomaly": 285.8773,
        "meta_ephemeris_type": 0,
        "meta_classification_type": "U",
        "meta_norad_cat_id": 66927,
        "meta_element_set_no": 999,
        "meta_rev_at_epoch": 287,
        "meta_bstar": -0.0067595025,
        "meta_mean_motion_dot": -0.01332852,
        "meta_mean_motion_ddot": 0,
        "tle_line1": "1 66927U 25286C   25352.25003472 -.01332852  00000+0 -67595-2 0  9992",
        "tle_line2": "2 66927  53.1566  22.7418 0000775  82.5989 285.8773 15.83631694  2875"
      },
      "geometry": {
        "type": "Point",
        "coordinates": [
          -163.22081252338268,
          5.1988003917483825
        ]
      }
    },
    {
      "type": "Feature",
      "properties": {
        "norad_id": 66928,
        "name": "STARLINK-35944",
        "group": "last-30-days",
        "lat": 8.574296419278335,
        "lon": -165.79188215937754,
        "alt_km": 323.24330141815153,
        "timestamp": "2025-12-18T15:47:09.961751+00:00",
        "meta_object_name": "STARLINK-35944",
        "meta_object_id": "2025-286D",
        "meta_epoch": "2025-12-18T06:00:02.999808",
        "meta_mean_motion": 15.83611617,
        "meta_eccentricity": 6.555e-05,
        "meta_inclination": 53.1565,
        "meta_ra_of_asc_node": 22.7503,
        "meta_arg_of_pericenter": 85.6812,
        "meta_mean_anomaly": 278.5808,
        "meta_ephemeris_type": 0,
        "meta_classification_type": "U",
        "meta_norad_cat_id": 66928,
        "meta_element_set_no": 999,
        "meta_rev_at_epoch": 287,
        "meta_bstar": -0.0066874006,
        "meta_mean_motion_dot": -0.01319196,
        "meta_mean_motion_ddot": 0,
        "tle_line1": "1 66928U 25286D   25352.25003472 -.01319196  00000+0 -66874-2 0  9998",
        "tle_line2": "2 66928  53.1565  22.7503 0000655  85.6812 278.5808 15.83611617  2877"
      },
      "geometry": {
        "type": "Point",
        "coordinates": [
          -165.79188215937754,
          8.574296419278335
        ]
      }
    },
    {
      "type": "Feature",
      "properties": {
        "norad_id": 66929,
        "name": "STARLINK-36169",
        "group": "last-30-days",
        "lat": 3.4097400514366796,
        "lon": -161.87443657824394,
        "alt_km": 324.13415497693404,
        "timestamp": "2025-12-18T15:47:09.961761+00:00",
        "meta_object_name": "STARLINK-36169",
        "meta_object_id": "2025-286E",
        "meta_epoch": "2025-12-18T06:00:02.999808",
        "meta_mean_motion": 15.836304,
        "meta_eccentricity": 7.627e-05,
        "meta_inclination": 53.1565,
        "meta_ra_of_asc_node": 22.7368,
        "meta_arg_of_pericenter": 77.2817,
        "meta_mean_anomaly": 293.4356,
        "meta_ephemeris_type": 0,
        "meta_classification_type": "U",
        "meta_norad_cat_id": 66929,
        "meta_element_set_no": 999,
        "meta_rev_at_epoch": 287,
        "meta_bstar": -0.0067588109,
        "meta_mean_motion_dot": -0.01332652,
        "meta_mean_motion_ddot": 0,
        "tle_line1": "1 66929U 25286E   25352.25003472 -.01332652  00000+0 -67588-2 0  9994",
        "tle_line2": "2 66929  53.1565  22.7368 0000762  77.2817 293.4356 15.83630400  2873"
      },
      "geometry": {
        "type": "Point",
        "coordinates": [
          -161.87443657824394,
          3.4097400514366796
        ]
      }
    },
    {
      "type": "Feature",
      "properties": {
        "norad_id": 66930,
        "name": "STARLINK-36206",
        "group": "last-30-days",
        "lat": 1.7609702181851312,
        "lon": -160.63913539502025,
        "alt_km": 324.25076928742874,
        "timestamp": "2025-12-18T15:47:09.961773+00:00",
        "meta_object_name": "STARLINK-36206",
        "meta_object_id": "2025-286F",
        "meta_epoch": "2025-12-18T06:00:02.999808",
        "meta_mean_motion": 15.83645193,
        "meta_eccentricity": 8.033e-05,
        "meta_inclination": 53.1564,
        "meta_ra_of_asc_node": 22.7325,
        "meta_arg_of_pericenter": 86.5561,
        "meta_mean_anomaly": 286.2067,
        "meta_ephemeris_type": 0,
        "meta_classification_type": "U",
        "meta_norad_cat_id": 66930,
        "meta_element_set_no": 999,
        "meta_rev_at_epoch": 287,
        "meta_bstar": -0.0068038031,
        "meta_mean_motion_dot": -0.01341271,
        "meta_mean_motion_ddot": 0,
        "tle_line1": "1 66930U 25286F   25352.25003472 -.01341271  00000+0 -68038-2 0  9994",
        "tle_line2": "2 66930  53.1564  22.7325 0000803  86.5561 286.2067 15.83645193  2876"
      },
      "geometry": {
        "type": "Point",
        "coordinates": [
          -160.63913539502025,
          1.7609702181851312
        ]
      }
    },
    {
      "type": "Feature",
      "properties": {
        "norad_id": 66931,
        "name": "STARLINK-36130",
        "group": "last-30-days",
        "lat": -0.0664766801571564,
        "lon": -159.27301920159266,
        "alt_km": 324.62715079693953,
        "timestamp": "2025-12-18T15:47:09.961783+00:00",
        "meta_object_name": "STARLINK-36130",
        "meta_object_id": "2025-286G",
        "meta_epoch": "2025-12-18T06:00:02.999808",
        "meta_mean_motion": 15.83646638,
        "meta_eccentricity": 7.151e-05,
        "meta_inclination": 53.1563,
        "meta_ra_of_asc_node": 22.7278,
        "meta_arg_of_pericenter": 78.5279,
        "meta_mean_anomaly": 296.5225,
        "meta_ephemeris_type": 0,
        "meta_classification_type": "U",
        "meta_norad_cat_id": 66931,
        "meta_element_set_no": 999,
        "meta_rev_at_epoch": 287,
        "meta_bstar": -0.0068382583,
        "meta_mean_motion_dot": -0.01347233,
        "meta_mean_motion_ddot": 0,
        "tle_line1": "1 66931U 25286G   25352.25003472 -.01347233  00000+0 -68383-2 0  9992",
        "tle_line2": "2 66931  53.1563  22.7278 0000715  78.5279 296.5225 15.83646638  2877"
      },
      "geometry": {
        "type": "Point",
        "coordinates": [
          -159.27301920159266,
          -0.0664766801571564
        ]
      }
    },
    {
      "type": "Feature",
      "properties": {
        "norad_id": 66932,
        "name": "STARLINK-36177",
        "group": "last-30-days",
        "lat": -1.8607292348491624,
        "lon": -157.9316887347144,
        "alt_km": 324.92368213130794,
        "timestamp": "2025-12-18T15:47:09.961793+00:00",
        "meta_object_name": "STARLINK-36177",
        "meta_object_id": "2025-286H",
        "meta_epoch": "2025-12-18T06:00:02.999808",
        "meta_mean_motion": 15.83650204,
        "meta_eccentricity": 7.758e-05,
        "meta_inclination": 53.156,
        "meta_ra_of_asc_node": 22.7231,
        "meta_arg_of_pericenter": 77.2232,
        "meta_mean_anomaly": 300.0708,
        "meta_ephemeris_type": 0,
        "meta_classification_type": "U",
        "meta_norad_cat_id": 66932,
        "meta_element_set_no": 999,
        "meta_rev_at_epoch": 287,
        "meta_bstar": -0.0068894337,
        "meta_mean_motion_dot": -0.01356277,
        "meta_mean_motion_ddot": 0,
        "tle_line1": "1 66932U 25286H   25352.25003472 -.01356277  00000+0 -68894-2 0  9998",
        "tle_line2": "2 66932  53.1560  22.7231 0000775  77.2232 300.0708 15.83650204  2876"
      },
      "geometry": {
        "type": "Point",
        "coordinates": [
          -157.9316887347144,
          -1.8607292348491624
        ]
      }
    },
    {
      "type": "Feature",
      "properties": {
        "norad_id": 66933,
        "name": "STARLINK-36157",
        "group": "last-30-days",
        "lat": -3.629251342877951,
        "lon": -156.60614724956994,
        "alt_km": 325.0639882341784,
        "timestamp": "2025-12-18T15:47:09.961802+00:00",
        "meta_object_name": "STARLINK-36157",
        "meta_object_id": "2025-286J",
        "meta_epoch": "2025-12-18T06:00:02.999808",
        "meta_mean_motion": 15.83656486,
        "meta_eccentricity": 7.044e-05,
        "meta_inclination": 53.1563,
        "meta_ra_of_asc_node": 22.7185,
        "meta_arg_of_pericenter": 85.9689,
        "meta_mean_anomaly": 293.5342,
        "meta_ephemeris_type": 0,
        "meta_classification_type": "U",
        "meta_norad_cat_id": 66933,
        "meta_element_set_no": 999,
        "meta_rev_at_epoch": 287,
        "meta_bstar": -0.0069336645,
        "meta_mean_motion_dot": -0.01364182,
        "meta_mean_motion_ddot": 0,
        "tle_line1": "1 66933U 25286J   25352.25003472 -.01364182  00000+0 -69337-2 0  9996",
        "tle_line2": "2 66933  53.1563  22.7185 0000704  85.9689 293.5342 15.83656486  2870"
      },
      "geometry": {
        "type": "Point",
        "coordinates": [
          -156.60614724956994,
          -3.629251342877951
        ]
      }
    }
  ]
}